1 35918U 97051UB  26113.02063000  .00002406  00000+0  58233-3 0  9997
2 35918  86.4045  19.4046 0028511  89.8196 284.6167 14.52423262871121
